"{\n    \"CCSDS_OMM_VERS\": \"2.0\",\n    \"COMMENT\": \"GENERATED VIA SPACE-TRACK.ORG API\",\n    \"CREATION_DATE\": \"2025-08-30T03:38:48\",\n    \"ORIGINATOR\": \"18 SPCS\",\n    \"OBJECT_NAME\": \"GALILEO 5 (261)\",\n    \"OBJECT_ID\": \"2014-050A\",\n    \"CENTER_NAME\": \"EARTH\",\n    \"REF_FRAME\": \"TEME\",\n    \"TIME_SYSTEM\": \"UTC\",\n    \"MEAN_ELEMENT_THEORY\": \"SGP4\",\n    \"EPOCH\": \"2025-08-28T17:55:50.271168\",\n    \"MEAN_MOTION\": \"1.8551969077\",\n    \"ECCENTRICITY\": \"0.16384284\",\n    \"INCLINATION\": \"49.193314\",\n    \"RA_OF_ASC_NODE\": \"285.37778\",\n    \"ARG_OF_PERICENTER\": \"168.22567\",\n    \"MEAN_ANOMALY\": \"196.15664\",\n    \"EPHEMERIS_TYPE\": \"0\",\n    \"CLASSIFICATION_TYPE\": \"U\",\n    \"NORAD_CAT_ID\": \"40128\",\n    \"ELEMENT_SET_NO\": \"999\",\n    \"REV_AT_EPOCH\": \"7289\",\n    \"BSTAR\": \"0\",\n    \"MEAN_MOTION_DOT\": \"-0.000000403611\",\n    \"MEAN_MOTION_DDOT\": \"0\",\n    \"TLE_LINE0\": \"0 GALILEO 5 (261)\",\n    \"TLE_LINE1\": \"1 40128U 14050A   25240.74710962 -.00000040  00000-0  00000-0 0  9999\",\n    \"TLE_LINE2\": \"2 40128  49.1933 285.3778 1638428 168.2257 196.1566  1.85519691 72894\",\n    \"SEMIMAJOR_AXIS\": \"27977.474\",\n    \"PERIOD\": \"776.198\",\n    \"APOAPSIS\": \"26183.248\",\n    \"PERIAPSIS\": \"17015.430\",\n    \"OBJECT_TYPE\": \"PAYLOAD\",\n    \"DECAYED\": \"0\"\n}"